#
# TLE data for GNSS satellites based on 2012/11/01 TLE
# satellite common name should be Gnn, Rnn, Enn, Jnn, Cnn, 1nn
#
G32
1 20959U 90103A   12305.07451262 -.00000021  00000-0  10000-3 0  7565
2 20959  54.4624 233.1521 0118917 330.7963  28.5681  2.00577377160619
G26
1 22014U 92039A   12306.37087390 -.00000046  00000-0  10000-3 0  5510
2 22014  56.2365 293.2228 0206081  69.0979 293.0930  2.00565595142373
G27
1 22108U 92058A   12306.47856067 -.00000074  00000-0  10000-3 0  4757
2 22108  56.2590 346.1330 0220845 301.3501  56.5741  2.00564854147550
G09
1 22700U 93042A   12306.00006975 -.00000075  00000-0  10000-3 0  7948
2 22700  56.4096 347.7175 0170373  94.8130 267.1984  2.00565512141709
G30
1 22779U 93054A   12303.25095910 -.00000082  00000-0  10000-3 0  4707
2 22779  55.1025  42.4705 0108381  92.5728 268.6699  2.00557245140408
G04
1 22877U 93068A   12305.64139148  .00000042  00000-0  10000-3 0  1531
2 22877  53.7259 168.0244 0101717  52.3111 308.7074  2.00562505139348
G06
1 23027U 94016A   12306.34174545  .00000020  00000-0  10000-3 0  1144
2 23027  53.8212 104.6690 0074156 334.2459  25.3848  2.00561786136663
G03
1 23833U 96019A   12305.36438265  .00000009  00000-0  10000-3 0  3102
2 23833  53.4345 100.2483 0156318  71.4031 290.2822  2.00554412121623
G10
1 23953U 96041A   12306.22097770 -.00000012  00000-0  10000-3 0  7983
2 23953  54.1338 229.1958 0116846  43.4387 317.4992  2.00556786119431
G13
1 24876U 97035A   12305.73289218 -.00000050  00000-0  10000-3 0  2681
2 24876  56.3796 293.6251 0045793 121.0726 239.3734  2.00571956111953
G08
1 25030U 97067A   12305.86451251 -.00000076  00000-0  10000-3 0  2140
2 25030  57.1970 354.1001 0128241 194.2008 165.4976  2.00567759109859
G11
1 25933U 99055A   12305.48417972  .00000041  00000-0  10000-3 0  7068
2 25933  50.9008 151.9262 0134533  63.3683 298.0899  2.00561805 95769
G20
1 26360U 00025A   12305.60454368 -.00000012  00000-0  10000-3 0  7942
2 26360  53.2387 225.3681 0049625  72.3303 288.2416  2.00570460 91463
G28
1 26407U 00040A   12305.44874163 -.00000056  00000-0  10000-3 0  7478
2 26407  56.2023  51.1454 0184334 256.2732 101.6732  2.00568582 90138
G14
1 26605U 00071A   12306.03946028 -.00000048  00000-0  10000-3 0  7637
2 26605  55.9660 292.0214 0070564 244.3671 114.8905  2.00565896 87746
G18
1 26690U 01004A   12305.91186406 -.00000014  00000-0  10000-3 0  6407
2 26690  53.2061 228.4249 0138366 238.1729 120.4995  2.00555450 86158
G16
1 27663U 03005A   12305.78537772 -.00000054  00000-0  10000-3 0   657
2 27663  56.2960  50.7599 0065043 359.7799   0.2188  2.00552862 71508
G21
1 27704U 03010A   12304.83053808  .00000045  00000-0  10000-3 0  9554
2 27704  53.3631 168.3413 0195570 233.9168 124.3565  2.00550017 70270
G22
1 28129U 03058A   12304.96349695 -.00000019  00000-0  10000-3 0  5293
2 28129  53.0757 228.6380 0064627 245.9711 113.3725  2.00562945 64986
G19
1 28190U 04009A   12304.90523588  .00000030  00000-0  10000-3 0  5233
2 28190  55.0767 113.3342 0085567  13.8713 346.3777  2.00568529 63152
G23
1 28361U 04023A   12306.18434140 -.00000048  00000-0  10000-3 0  3414
2 28361  54.9072 288.8646 0082868 194.5690 165.1797  2.00575167 61261
G02
1 28474U 04045A   12305.69106062  .00000042  00000-0  10000-3 0  2284
2 28474  53.7814 167.0621 0115930 204.6228 154.9133  2.00551422 58618
G17
1 28874U 05038A   12305.54226125  .00000027  00000-0  10000-3 0  4889
2 28874  55.2320 110.2949 0078222 229.5727 129.7504  2.00554645 52038
G31
1 29486U 06042A   12306.64897784 -.00000013  00000-0  10000-3 0  8714
2 29486  56.2030 349.3094 0080996 310.1609  49.2024  2.00553990 44755
G12
1 29601U 06052A   12305.59848721 -.00000057  00000-0  10000-3 0  9083
2 29601  56.2461  49.7185 0039560   5.2043 354.8437  2.00561210 43643
G15
1 32260U 07047A   12305.90806696 -.00000051  00000-0  00000+0 0  6135
2 32260  54.0594 286.6957 0050607 359.7059   0.2737  2.00566470 37044
G29
1 32384U 07062A   12306.22097950  .00000000  00000-0  10000-3 0  6554
2 32384  55.2628 110.7598 0019725 293.9115  65.8973  2.00555394 35778
G07
1 32711U 08012A   12305.81762270 -.00000077  00000-0  10000-3 0  4139
2 32711  55.9134 349.1355 0060756 192.9715 166.9328  2.00558624 33970
G05
1 35752U 09043A   12305.78517096 -.00000012  00000-0  10000-3 0  1644
2 35752  54.4300 228.0298 0029751  10.4811 349.6052  2.00552172 23558
G25
1 36585U 10022A   12306.13952409 -.00000056  00000-0  10000-3 0  9847
2 36585  55.6069  47.6405 0016443  36.6277 323.4960  2.00567183 17800
G01
1 37753U 11036A   12306.51228065  .00000000  00000-0  10000-3 0  4424
2 37753  55.0089 168.0119 0013035  22.4442 337.7173  2.00558669  9494
G24
1 38833U 12053A   12305.40600466 -.00000081  00000-0  00000+0 0   139
2 38833  54.9711 347.7090 0003555 277.1770  83.2268  1.97903949   531

R08
1 28509U 04053B   12306.74145465 -.00000000  00000-0  10000-3 0  1777
2 28509  63.2836 237.3508 0004791 174.9346 213.8520  2.13100546 61108
R17
1 28915U 05050A   12305.72049255  .00000056  00000-0  00000+0 0  9316
2 28915  64.9197 122.8094 0015594 354.5117 314.1813  2.13102080 53320
R15
1 29670U 06062A   12306.73470679 -.00000053  00000-0  10000-3 0  6375
2 29670  65.8812   1.4831 0020134 342.5508  97.7450  2.13105179 45550
R10
1 29671U 06062B   12306.04121391 -.00000054  00000-0  10000-3 0  6566
2 29671  65.8970   1.5595 0019233 171.3762 327.3932  2.13103094 45542
R14
1 29672U 06062C   12306.73472777 -.00000053  00000-0  10000-3 0  6592
2 29672  65.8823   1.4887 0018707 170.5609 320.0732  2.13103124 45552
R19
1 32275U 07052A   12306.14231785  .00000056  00000-0  10000-3 0  3838
2 32275  64.9331 122.5417 0001118 180.4125   1.8611  2.13096403 39053
R20
1 32276U 07052B   12306.15572678  .00000057  00000-0  10000-3 0  3672
2 32276  64.9453 122.5852 0011610 349.1079 157.4345  2.13098101 39051
R13
1 32393U 07065A   12305.14515091 -.00000055  00000-0  00000+0 0  2178
2 32393  65.5056   1.4844 0004972 146.1704 248.0630  2.13102898 37743
R14S
1 32394U 07065B   12306.73472777 -.00000054  00000-0  10000-3 0  1328
2 32394  65.5090   1.4248 0017537 356.3258 133.2471  2.13103846 37719
R11
1 32395U 07065C   12306.04300251 -.00000054  00000-0  10000-3 0  1364
2 32395  65.5182   1.4756 0014921 348.8193 105.8725  2.13102996 37693
R18
1 33378U 08046A   12306.71163618  .00000058  00000-0  10000-3 0  1671
2 33378  64.8481 122.0251 0022701 337.5886 328.3774  2.13103798 31925
R21
1 33379U 08046B   12306.45871293  .00000057  00000-0  10000-3 0  1521
2 33379  64.8565 122.0811 0020755 177.6659 159.5956  2.13101659 31929
R22M
1 33380U 08046C   12306.67750395  .00000058  00000-0  10000-3 0  1583
2 33380  64.8645 122.0952 0023647 328.0569 133.5206  2.13102736 31928
R03M
1 33466U 08067A   12306.64943653 -.00000001  00000-0  00000+0 0   931
2 33466  64.1251 241.4253 0005495 263.3750 278.5351  2.13102088 29987
R08M
1 33467U 08067B   12306.49143235 -.00000002  00000-0  10000-3 0   973
2 33467  64.1136 241.4001 0005413 278.5234 277.5993  2.13101969 30009
R02
1 33468U 08067C   12306.11156473 -.00000005  00000-0  10000-3 0   907
2 33468  64.1177 241.4209 0006320 298.9824 233.6586  2.13101702 29985
R01
1 36111U 09070A   12306.76065814 -.00000001  00000-0  00000+0 0  8379
2 36111  64.3534 241.5867 0006263 308.2119  49.1416  2.13101969 22431
R06
1 36112U 09070B   12306.74108801 -.00000001  00000-0  00000+0 0  8215
2 36112  64.3354 241.5440 0006210 172.8974 304.3043  2.13101639 22442
R05
1 36113U 09070C   12305.00372219 -.00000014  00000-0  10000-3 0  8275
2 36113  64.3412 241.6005 0001895 309.9410 319.9293  2.13101989 22401
R22
1 36400U 10007A   12306.67357080  .00000058  00000-0  10000-3 0  7646
2 36400  64.8330 121.8503 0030010 357.7983 100.0837  2.13102576 20799
R24
1 36401U 10007B   12306.64832911  .00000058  00000-0  10000-3 0  7634
2 36401  64.8262 121.8441 0007506  95.6950 253.1321  2.13102643 20783
R23
1 36402U 10007C   12305.14101134  .00000056  00000-0  10000-3 0  7699
2 36402  64.8159 121.8888 0002655 127.3123 188.9672  2.13102267 20752
R16
1 37137U 10041A   12306.20285227 -.00000055  00000-0  10000-3 0  6348
2 37137  65.0840   2.2403 0023127 158.1369 191.5783  2.13102502 16855
R12
1 37138U 10041B   12306.41815853 -.00000055  00000-0  00000+0 0  6396
2 37138  65.1006   2.2803 0037290 169.7307 166.0604  2.13102904 16856
R09
1 37139U 10041C   12306.37914065 -.00000055  00000-0  00000+0 0  6274
2 37139  65.1021   2.2699 0018315  12.5394  67.9139  2.13102743 16869
R21T
1 37372U 11009A   12305.30780642  .00000055  00000-0  10000-3 0  4971
2 37372  64.8267 121.8165 0004817 220.2309 332.2358  2.13109559 13048
R04
1 37829U 11055A   12306.12075527 -.00000004  00000-0  00000+0 0  3248
2 37829  64.6737 241.4750 0009727 267.1501 184.8044  2.13101938  8425
R03
1 37867U 11064A   12305.19785595 -.00000011  00000-0  00000+0 0  2943
2 37867  64.6546 241.6223 0018308 261.9410 247.1571  2.13102077  7756
R07
1 37868U 11064B   12305.74218890 -.00000007  00000-0  00000+0 0  2961
2 37868  64.6630 241.6301 0016356 263.4076 123.2991  2.13101981  7724
R02S
1 37869U 11064C   12306.11014344 -.00000004  00000-0  10000-3 0  2841
2 37869  64.6695 241.6027 0022284 280.0531 254.1124  2.13102241  7732
R17
1 37938U 11071A   12305.71131964  .00000055  00000-0  00000+0 0  2748
2 37938  64.8455 121.9906 0010984 231.0237  72.5268  2.13102546  7339

E11
1 37846U 11060A   12304.67814544  .00000050  00000-0  00000+0 0  1441
2 37846 054.8017 119.2651 0000721 312.3383 047.6828 01.70474482  6393
E12
1 37847U 11060B   12304.02585424  .00000051  00000-0  10000-3 0  1449
2 37847 054.8014 119.2820 0001911 264.4524 095.5571 01.70474781  6383
E13
1 38857U 12055A   12304.71911195 -.00000032  00000-0  10000-3 0   135
2 38857 055.3326 239.0484 0002766 248.5282 111.4336 01.70461238   314
E14
1 38858U 12055B   12304.67766338 -.00000032  00000-0  10000-3 0    93
2 38858 055.3338 239.0495 0013245 345.8801 014.0750 01.70870026   319

J01
1 37158U 10045A   12305.75600874 -.00000160  00000-0  10000-3 0  4135
2 37158  40.6715 183.9122 0747760 270.2174 352.3545  1.00247632  7851
